OBJECT_NAME,OBJECT_ID,EPOCH,MEAN_MOTION,ECCENTRICITY,INCLINATION,RA_OF_ASC_NODE,ARG_OF_PERICENTER,MEAN_ANOMALY,EPHEMERIS_TYPE,CLASSIFICATION_TYPE,NORAD_CAT_ID,ELEMENT_SET_NO,REV_AT_EPOCH,BSTAR,MEAN_MOTION_DOT,MEAN_MOTION_DDOT
IONOSFERA-M 4,2025-155B,2026-06-17T11:48:13.934016,14.21488680,.0001057,98.6031,130.3066,119.9665,240.1617,0,U,64877,999,4644,.3653E-4,.37E-6,0
MICROCARB,2025-156A,2026-06-17T03:35:38.227200,14.72325432,.0014958,97.9832,245.2877,272.3692,87.5803,0,U,64899,999,4796,.72028E-4,.406E-5,0
CO3D 3,2025-156B,2026-06-16T14:17:07.269792,15.20207450,.0001478,97.4333,246.2967,132.9182,227.2177,0,U,64900,999,4944,.16709E-3,.3552E-4,0
CO3D 4,2025-156C,2026-06-16T11:07:46.562304,15.20193539,.00002837,97.4332,246.1670,1.9274,358.1962,0,U,64901,999,4942,.1506382E-4,.259E-5,0
CO3D 2,2025-156D,2026-06-17T11:36:19.309248,15.20198779,.0001483,97.4330,247.0712,106.7930,253.3468,0,U,64902,999,4957,.17186E-3,.3654E-4,0
CO3D 1,2025-156E,2026-06-17T11:36:32.455008,15.20198623,.0001295,97.4329,247.0714,110.7544,249.3830,0,U,64903,999,4957,.2026E-3,.432E-4,0
PRSC-S1,2025-164A,2026-06-17T12:41:57.475680,15.06460987,.0006542,41.1310,285.8869,346.1143,13.9490,0,U,65055,999,4848,.26178E-3,.3756E-4,0
SENTINEL-6B,2025-264A,2026-06-17T07:40:53.126112,12.80929950,.0008016,66.0395,134.9024,269.1832,90.8264,0,U,66514,999,2718,-.34174E-4,-.69E-6,0
CAS500-3,2025-274F,2026-06-17T08:23:34.453248,14.88321291,.0006762,97.7446,96.3970,109.7091,250.4855,0,U,66655,999,3017,.11652E-3,.1024E-4,0
CSG-3,2026-001A,2026-06-17T11:15:28.581120,14.82153956,.0001379,97.8887,352.0668,94.6781,265.4590,0,U,67304,999,2450,.35797E-4,.233E-5,0
PRSC-E03,2026-092A,2026-06-17T06:06:30.452832,15.06668590,.0003707,38.0007,89.2832,4.8675,355.2123,0,U,68835,999,796,.14635E-3,.2104E-4,0
CAS500-2,2026-100AK,2026-06-17T06:48:40.020192,15.20590726,.0010702,97.4075,66.1371,34.4964,325.6964,0,U,69013,999,682,.22292E-3,.4823E-4,0
