IONOSFERA-M 4           
1 64877U 25155B   26168.49182794  .00000037  00000+0  36530-4 0  9997
2 64877  98.6031 130.3066 0001057 119.9665 240.1617 14.21488680 46441
MICROCARB               
1 64899U 25156A   26168.14974800  .00000406  00000+0  72028-4 0  9993
2 64899  97.9832 245.2877 0014958 272.3692  87.5803 14.72325432 47969
CO3D 3                  
1 64900U 25156B   26167.59522303  .00003552  00000+0  16709-3 0  9999
2 64900  97.4333 246.2967 0001478 132.9182 227.2177 15.20207450 49447
CO3D 4                  
1 64901U 25156C   26167.46373336  .00000259  00000+0  15064-4 0  9991
2 64901  97.4332 246.1670 0000283   1.9274 358.1962 15.20193539 49423
CO3D 2                  
1 64902U 25156D   26168.48355682  .00003654  00000+0  17186-3 0  9997
2 64902  97.4330 247.0712 0001483 106.7930 253.3468 15.20198779 49579
CO3D 1                  
1 64903U 25156E   26168.48370897  .00004320  00000+0  20260-3 0  9991
2 64903  97.4329 247.0714 0001295 110.7544 249.3830 15.20198623 49573
PRSC-S1                 
1 65055U 25164A   26168.52913745  .00003756  00000+0  26178-3 0  9995
2 65055  41.1310 285.8869 0006542 346.1143  13.9490 15.06460987 48484
SENTINEL-6B             
1 66514U 25264A   26168.32005933 -.00000069  00000+0 -34174-4 0  9998
2 66514  66.0395 134.9024 0008016 269.1832  90.8264 12.80929950 27184
CAS500-3                
1 66655U 25274F   26168.34970432  .00001024  00000+0  11652-3 0  9997
2 66655  97.7446  96.3970 0006762 109.7091 250.4855 14.88321291 30178
CSG-3                   
1 67304U 26001A   26168.46908080  .00000233  00000+0  35797-4 0  9999
2 67304  97.8887 352.0668 0001379  94.6781 265.4590 14.82153956 24500
PRSC-E03                
1 68835U 26092A   26168.25451913  .00002104  00000+0  14635-3 0  9990
2 68835  38.0007  89.2832 0003707   4.8675 355.2123 15.06668590  7968
CAS500-2                
1 69013U 26100AK  26168.28379653  .00004823  00000+0  22292-3 0  9990
2 69013  97.4075  66.1371 0010702  34.4964 325.6964 15.20590726  6825
